[
    {
        "Altitude(m)": 571782.7305832248,
        "Argument of Periapsis(deg)": 0.006622991110713501,
        "Eccentricity": 0.0,
        "Inclination(deg)": 53.0,
        "Latitude(deg)": -52.99050370865498,
        "Longitude(deg)": 15.402993780671888,
        "Mean Anomaly(deg)": -86.27200713242239,
        "RAAN(deg)": 199.99014336852804,
        "Satellite Name": "Starlink Shell 1 896",
        "Satellite Number": 896,
        "Semi-Major Axis(m)": 6931778.249405717,
        "Time(s)": 190
    },
    {
        "Altitude(m)": 571760.247415492,
        "Argument of Periapsis(deg)": 0.0069715695902247375,
        "Eccentricity": 0.0,
        "Inclination(deg)": 53.0,
        "Latitude(deg)": -52.93235925091492,
        "Longitude(deg)": 16.391427572216166,
        "Mean Anomaly(deg)": -85.64517592886573,
        "RAAN(deg)": 199.98962459845055,
        "Satellite Name": "Starlink Shell 1 896",
        "Satellite Number": 896,
        "Semi-Major Axis(m)": 6931778.249405717,
        "Time(s)": 200
    },
    {
        "Altitude(m)": 571734.3167305554,
        "Argument of Periapsis(deg)": 0.007320148069735974,
        "Eccentricity": 0.0,
        "Inclination(deg)": 53.0,
        "Latitude(deg)": -52.86532074380605,
        "Longitude(deg)": 17.37690011994112,
        "Mean Anomaly(deg)": -85.01834472530898,
        "RAAN(deg)": 199.98910582837308,
        "Satellite Name": "Starlink Shell 1 896",
        "Satellite Number": 896,
        "Semi-Major Axis(m)": 6931778.249405717,
        "Time(s)": 210
    },
    {
        "Altitude(m)": 571704.9488556891,
        "Argument of Periapsis(deg)": 0.007668726549247212,
        "Eccentricity": 0.0,
        "Inclination(deg)": 53.0,
        "Latitude(deg)": -52.789436617677794,
        "Longitude(deg)": 18.3590102190357,
        "Mean Anomaly(deg)": -84.3915135217522,
        "RAAN(deg)": 199.98858705829562,
        "Satellite Name": "Starlink Shell 1 896",
        "Satellite Number": 896,
        "Semi-Major Axis(m)": 6931778.249405717,
        "Time(s)": 220
    },
    {
        "Altitude(m)": 571672.1554888759,
        "Argument of Periapsis(deg)": 0.00801730502875845,
        "Eccentricity": 0.0,
        "Inclination(deg)": 53.0,
        "Latitude(deg)": -52.70476127597083,
        "Longitude(deg)": 19.337366275820052,
        "Mean Anomaly(deg)": -83.76468231819554,
        "RAAN(deg)": 199.98806828821813,
        "Satellite Name": "Starlink Shell 1 896",
        "Satellite Number": 896,
        "Semi-Major Axis(m)": 6931778.249405717,
        "Time(s)": 230
    },
    {
        "Altitude(m)": 571635.9496937831,
        "Argument of Periapsis(deg)": 0.008365883508269684,
        "Eccentricity": 0.0,
        "Inclination(deg)": 53.0,
        "Latitude(deg)": -52.61135490708534,
        "Longitude(deg)": 20.311587800248297,
        "Mean Anomaly(deg)": -83.13785111463879,
        "RAAN(deg)": 199.98754951814067,
        "Satellite Name": "Starlink Shell 1 896",
        "Satellite Number": 896,
        "Semi-Major Axis(m)": 6931778.249405717,
        "Time(s)": 240
    },
    {
        "Altitude(m)": 571596.3458940726,
        "Argument of Periapsis(deg)": 0.008714461987780921,
        "Eccentricity": 0.0,
        "Inclination(deg)": 53.0,
        "Latitude(deg)": -52.50928327929016,
        "Longitude(deg)": 21.281305314011497,
        "Mean Anomaly(deg)": -82.51101991108204,
        "RAAN(deg)": 199.98703074806318,
        "Satellite Name": "Starlink Shell 1 896",
        "Satellite Number": 896,
        "Semi-Major Axis(m)": 6931778.249405717,
        "Time(s)": 250
    },
    {
        "Altitude(m)": 571553.3598672004,
        "Argument of Periapsis(deg)": 0.009063040467292158,
        "Eccentricity": 0.0,
        "Inclination(deg)": 53.0,
        "Latitude(deg)": -52.3986175202554,
        "Longitude(deg)": 22.24616169540377,
        "Mean Anomaly(deg)": -81.88418870752537,
        "RAAN(deg)": 199.9865119779857,
        "Satellite Name": "Starlink Shell 1 896",
        "Satellite Number": 896,
        "Semi-Major Axis(m)": 6931778.249405717,
        "Time(s)": 260
    },
    {
        "Altitude(m)": 571507.0087375544,
        "Argument of Periapsis(deg)": 0.009411618946803396,
        "Eccentricity": 0.0,
        "Inclination(deg)": 53.0,
        "Latitude(deg)": -52.2794338828647,
        "Longitude(deg)": 23.205813444500816,
        "Mean Anomaly(deg)": -81.2573575039687,
        "RAAN(deg)": 199.98599320790822,
        "Satellite Name": "Starlink Shell 1 896",
        "Satellite Number": 896,
        "Semi-Major Axis(m)": 6931778.249405717,
        "Time(s)": 270
    },
    {
        "Altitude(m)": 571457.310969093,
        "Argument of Periapsis(deg)": 0.009760197426314633,
        "Eccentricity": 0.0,
        "Inclination(deg)": 53.0,
        "Latitude(deg)": -52.15181349910743,
        "Longitude(deg)": 24.15993035240601,
        "Mean Anomaly(deg)": -80.63052630041196,
        "RAAN(deg)": 199.98547443783076,
        "Satellite Name": "Starlink Shell 1 896",
        "Satellite Number": 896,
        "Semi-Major Axis(m)": 6931778.249405717,
        "Time(s)": 280
    },
    {
        "Altitude(m)": 571404.2863573066,
        "Argument of Periapsis(deg)": 0.01010877590582587,
        "Eccentricity": 0.0,
        "Inclination(deg)": 53.0,
        "Latitude(deg)": -52.01584212362865,
        "Longitude(deg)": 25.108196599919022,
        "Mean Anomaly(deg)": -80.00369509685518,
        "RAAN(deg)": 199.98495566775327,
        "Satellite Name": "Starlink Shell 1 896",
        "Satellite Number": 896,
        "Semi-Major Axis(m)": 6931778.249405717,
        "Time(s)": 290
    },
    {
        "Altitude(m)": 571347.9560206722,
        "Argument of Periapsis(deg)": 0.010457354385337106,
        "Eccentricity": 0.0,
        "Inclination(deg)": 53.0,
        "Latitude(deg)": -51.87160986893572,
        "Longitude(deg)": 26.050311769918345,
        "Mean Anomaly(deg)": -79.37686389329855,
        "RAAN(deg)": 199.98443689767583,
        "Satellite Name": "Starlink Shell 1 896",
        "Satellite Number": 896,
        "Semi-Major Axis(m)": 6931778.249405717,
        "Time(s)": 300
    },
    {
        "Altitude(m)": 571288.3423915011,
        "Argument of Periapsis(deg)": 0.010805932864848343,
        "Eccentricity": 0.0,
        "Inclination(deg)": 53.0,
        "Latitude(deg)": -51.71921093387216,
        "Longitude(deg)": 26.985990261851843,
        "Mean Anomaly(deg)": -78.7500326897419,
        "RAAN(deg)": 199.98391812759837,
        "Satellite Name": "Starlink Shell 1 896",
        "Satellite Number": 896,
        "Semi-Major Axis(m)": 6931778.249405717,
        "Time(s)": 310
    },
    {
        "Altitude(m)": 571225.4692062263,
        "Argument of Periapsis(deg)": 0.01115451134435958,
        "Eccentricity": 0.0,
        "Inclination(deg)": 53.0,
        "Latitude(deg)": -51.55874332715752,
        "Longitude(deg)": 27.9149621342792,
        "Mean Anomaly(deg)": -78.1232014861851,
        "RAAN(deg)": 199.98339935752088,
        "Satellite Name": "Starlink Shell 1 896",
        "Satellite Number": 896,
        "Semi-Major Axis(m)": 6931778.249405717,
        "Time(s)": 320
    },
    {
        "Altitude(m)": 571159.3614951075,
        "Argument of Periapsis(deg)": 0.011503089823870818,
        "Eccentricity": 0.0,
        "Inclination(deg)": 53.0,
        "Latitude(deg)": -51.390308587686405,
        "Longitude(deg)": 28.83697386416877,
        "Mean Anomaly(deg)": -77.49637028262835,
        "RAAN(deg)": 199.98288058744342,
        "Satellite Name": "Starlink Shell 1 896",
        "Satellite Number": 896,
        "Semi-Major Axis(m)": 6931778.249405717,
        "Time(s)": 330
    },
    {
        "Altitude(m)": 571090.0455713962,
        "Argument of Periapsis(deg)": 0.011851668303382053,
        "Eccentricity": 0.0,
        "Inclination(deg)": 53.0,
        "Latitude(deg)": -51.214011503230815,
        "Longitude(deg)": 29.751787512269136,
        "Mean Anomaly(deg)": -76.86953907907171,
        "RAAN(deg)": 199.98236181736596,
        "Satellite Name": "Starlink Shell 1 896",
        "Satellite Number": 896,
        "Semi-Major Axis(m)": 6931778.249405717,
        "Time(s)": 340
    },
    {
        "Altitude(m)": 571017.549019906,
        "Argument of Periapsis(deg)": 0.012200246782893292,
        "Eccentricity": 0.0,
        "Inclination(deg)": 53.0,
        "Latitude(deg)": -51.029959829111284,
        "Longitude(deg)": 30.659181323120077,
        "Mean Anomaly(deg)": -76.24270787551504,
        "RAAN(deg)": 199.98184304728846,
        "Satellite Name": "Starlink Shell 1 896",
        "Satellite Number": 896,
        "Semi-Major Axis(m)": 6931778.249405717,
        "Time(s)": 350
    },
    {
        "Altitude(m)": 570941.9006850597,
        "Argument of Periapsis(deg)": 0.012548825262404526,
        "Eccentricity": 0.0,
        "Inclination(deg)": 53.0,
        "Latitude(deg)": -50.83826400832376,
        "Longitude(deg)": 31.55895025020762,
        "Mean Anomaly(deg)": -75.61587667195829,
        "RAAN(deg)": 199.98132427721097,
        "Satellite Name": "Starlink Shell 1 896",
        "Satellite Number": 896,
        "Semi-Major Axis(m)": 6931778.249405717,
        "Time(s)": 360
    },
    {
        "Altitude(m)": 570863.1306583674,
        "Argument of Periapsis(deg)": 0.012897403741915765,
        "Eccentricity": 0.0,
        "Inclination(deg)": 53.0,
        "Latitude(deg)": -50.63903689451604,
        "Longitude(deg)": 32.45090489724544,
        "Mean Anomaly(deg)": -74.98904546840151,
        "RAAN(deg)": 199.9808055071335,
        "Satellite Name": "Starlink Shell 1 896",
        "Satellite Number": 896,
        "Semi-Major Axis(m)": 6931778.249405717,
        "Time(s)": 370
    }
]